{
  "type": "FeatureCollection",
  "features": [
    {
      "type": "Feature",
      "properties": {
        "norad_id": 36036,
        "name": "SMOS",
        "group": "resource",
        "lat": 70.52858703926029,
        "lon": 11.560410878798539,
        "alt_km": 751.8105577258893,
        "timestamp": "2025-12-07T14:37:04.866124+00:00",
        "meta_object_name": "SMOS",
        "meta_object_id": "2009-059A",
        "meta_epoch": "2025-12-06T06:25:45.772896",
        "meta_mean_motion": 14.39732741,
        "meta_eccentricity": 0.0001133,
        "meta_inclination": 98.4387,
        "meta_ra_of_asc_node": 165.4122,
        "meta_arg_of_pericenter": 84.8118,
        "meta_mean_anomaly": 275.3199,
        "meta_ephemeris_type": 0,
        "meta_classification_type": "U",
        "meta_norad_cat_id": 36036,
        "meta_element_set_no": 999,
        "meta_rev_at_epoch": 84569,
        "meta_bstar": 0.00026315864,
        "meta_mean_motion_dot": 7.81e-06,
        "meta_mean_motion_ddot": 0,
        "tle_line1": "1 36036U 09059A   25340.26789089  .00000781  00000+0  26316-3 0  9990",
        "tle_line2": "2 36036  98.4387 165.4122 0001133  84.8118 275.3199 14.39732741845697"
      },
      "geometry": {
        "type": "Point",
        "coordinates": [
          11.560410878798539,
          70.52858703926029
        ]
      }
    },
    {
      "type": "Feature",
      "properties": {
        "norad_id": 36110,
        "name": "YAOGAN-7",
        "group": "resource",
        "lat": -47.406543282523096,
        "lon": -127.78243619195895,
        "alt_km": 627.2445266068153,
        "timestamp": "2025-12-07T14:37:04.866134+00:00",
        "meta_object_name": "YAOGAN-7",
        "meta_object_id": "2009-069A",
        "meta_epoch": "2025-12-06T22:34:59.271456",
        "meta_mean_motion": 14.77718955,
        "meta_eccentricity": 0.00235804,
        "meta_inclination": 98.0304,
        "meta_ra_of_asc_node": 222.7185,
        "meta_arg_of_pericenter": 301.0118,
        "meta_mean_anomaly": 58.8776,
        "meta_ephemeris_type": 0,
        "meta_classification_type": "U",
        "meta_norad_cat_id": 36110,
        "meta_element_set_no": 999,
        "meta_rev_at_epoch": 86123,
        "meta_bstar": 0.00018535195,
        "meta_mean_motion_dot": 1.281e-05,
        "meta_mean_motion_ddot": 0,
        "tle_line1": "1 36110U 09069A   25340.94096379  .00001281  00000+0  18535-3 0  9992",
        "tle_line2": "2 36110  98.0304 222.7185 0023580 301.0118  58.8776 14.77718955861231"
      },
      "geometry": {
        "type": "Point",
        "coordinates": [
          -127.78243619195895,
          -47.406543282523096
        ]
      }
    },
    {
      "type": "Feature",
      "properties": {
        "norad_id": 36605,
        "name": "TANDEM-X",
        "group": "resource",
        "lat": 25.713587223217186,
        "lon": 170.67475713148391,
        "alt_km": 506.934961840313,
        "timestamp": "2025-12-07T14:37:04.866145+00:00",
        "meta_object_name": "TANDEM-X",
        "meta_object_id": "2010-030A",
        "meta_epoch": "2025-12-06T14:13:48.617184",
        "meta_mean_motion": 15.19146828,
        "meta_eccentricity": 0.00021111,
        "meta_inclination": 97.4449,
        "meta_ra_of_asc_node": 346.063,
        "meta_arg_of_pericenter": 96.3345,
        "meta_mean_anomaly": 263.813,
        "meta_ephemeris_type": 0,
        "meta_classification_type": "U",
        "meta_norad_cat_id": 36605,
        "meta_element_set_no": 999,
        "meta_rev_at_epoch": 85740,
        "meta_bstar": 0.00017045926,
        "meta_mean_motion_dot": 3.514e-05,
        "meta_mean_motion_ddot": 0,
        "tle_line1": "1 36605U 10030A   25340.59292381  .00003514  00000+0  17046-3 0  9990",
        "tle_line2": "2 36605  97.4449 346.0630 0002111  96.3345 263.8130 15.19146828857408"
      },
      "geometry": {
        "type": "Point",
        "coordinates": [
          170.67475713148391,
          25.713587223217186
        ]
      }
    },
    {
      "type": "Feature",
      "properties": {
        "norad_id": 36795,
        "name": "CARTOSAT-2B",
        "group": "resource",
        "lat": -40.10284786654606,
        "lon": -155.81078060084064,
        "alt_km": 645.2829162481685,
        "timestamp": "2025-12-07T14:37:04.866155+00:00",
        "meta_object_name": "CARTOSAT-2B",
        "meta_object_id": "2010-035A",
        "meta_epoch": "2025-12-06T23:00:34.924320",
        "meta_mean_motion": 14.78775817,
        "meta_eccentricity": 0.00129082,
        "meta_inclination": 97.786,
        "meta_ra_of_asc_node": 30.1768,
        "meta_arg_of_pericenter": 94.6523,
        "meta_mean_anomaly": 265.6163,
        "meta_ephemeris_type": 0,
        "meta_classification_type": "U",
        "meta_norad_cat_id": 36795,
        "meta_element_set_no": 999,
        "meta_rev_at_epoch": 83144,
        "meta_bstar": 0.00019982384,
        "meta_mean_motion_dot": 1.42e-05,
        "meta_mean_motion_ddot": 0,
        "tle_line1": "1 36795U 10035A   25340.95873755  .00001420  00000+0  19982-3 0  9990",
        "tle_line2": "2 36795  97.7860  30.1768 0012908  94.6523 265.6163 14.78775817831447"
      },
      "geometry": {
        "type": "Point",
        "coordinates": [
          -155.81078060084064,
          -40.10284786654606
        ]
      }
    },
    {
      "type": "Feature",
      "properties": {
        "norad_id": 36834,
        "name": "YAOGAN-10",
        "group": "resource",
        "lat": -13.026958541664975,
        "lon": 179.62383847544544,
        "alt_km": 619.8320011827245,
        "timestamp": "2025-12-07T14:37:04.866166+00:00",
        "meta_object_name": "YAOGAN-10",
        "meta_object_id": "2010-038A",
        "meta_epoch": "2025-12-06T23:16:29.097408",
        "meta_mean_motion": 14.84574301,
        "meta_eccentricity": 0.00015013,
        "meta_inclination": 97.9142,
        "meta_ra_of_asc_node": 0.8337,
        "meta_arg_of_pericenter": 84.5916,
        "meta_mean_anomaly": 293.7762,
        "meta_ephemeris_type": 0,
        "meta_classification_type": "U",
        "meta_norad_cat_id": 36834,
        "meta_element_set_no": 999,
        "meta_rev_at_epoch": 82868,
        "meta_bstar": 0.00037732506,
        "meta_mean_motion_dot": 3.132e-05,
        "meta_mean_motion_ddot": 0,
        "tle_line1": "1 36834U 10038A   25340.96978122  .00003132  00000+0  37733-3 0  9998",
        "tle_line2": "2 36834  97.9142   0.8337 0001501  84.5916 293.7762 14.84574301828684"
      },
      "geometry": {
        "type": "Point",
        "coordinates": [
          179.62383847544544,
          -13.026958541664975
        ]
      }
    },
    {
      "type": "Feature",
      "properties": {
        "norad_id": 37216,
        "name": "COSMO-SKYMED 4",
        "group": "resource",
        "lat": 18.691843406167603,
        "lon": -14.304263423496318,
        "alt_km": 622.6636671952401,
        "timestamp": "2025-12-07T14:37:04.866176+00:00",
        "meta_object_name": "COSMO-SKYMED 4",
        "meta_object_id": "2010-060A",
        "meta_epoch": "2025-12-06T21:41:29.560704",
        "meta_mean_motion": 14.82157529,
        "meta_eccentricity": 0.00013622,
        "meta_inclination": 97.8814,
        "meta_ra_of_asc_node": 162.3151,
        "meta_arg_of_pericenter": 82.8625,
        "meta_mean_anomaly": 277.2743,
        "meta_ephemeris_type": 0,
        "meta_classification_type": "U",
        "meta_norad_cat_id": 37216,
        "meta_element_set_no": 999,
        "meta_rev_at_epoch": 81608,
        "meta_bstar": 0.00014058318,
        "meta_mean_motion_dot": 1.067e-05,
        "meta_mean_motion_ddot": 0,
        "tle_line1": "1 37216U 10060A   25340.90381436  .00001067  00000+0  14058-3 0  9998",
        "tle_line2": "2 37216  97.8814 162.3151 0001362  82.8625 277.2743 14.82157529816089"
      },
      "geometry": {
        "type": "Point",
        "coordinates": [
          -14.304263423496318,
          18.691843406167603
        ]
      }
    },
    {
      "type": "Feature",
      "properties": {
        "norad_id": 37387,
        "name": "RESOURCESAT-2",
        "group": "resource",
        "lat": 16.885403307353243,
        "lon": -132.1247312022684,
        "alt_km": 821.8632788840905,
        "timestamp": "2025-12-07T14:37:04.866186+00:00",
        "meta_object_name": "RESOURCESAT-2",
        "meta_object_id": "2011-015A",
        "meta_epoch": "2025-12-06T20:57:48.109536",
        "meta_mean_motion": 14.21593716,
        "meta_eccentricity": 0.00066727,
        "meta_inclination": 98.7884,
        "meta_ra_of_asc_node": 44.4515,
        "meta_arg_of_pericenter": 57.767,
        "meta_mean_anomaly": 302.4153,
        "meta_ephemeris_type": 0,
        "meta_classification_type": "U",
        "meta_norad_cat_id": 37387,
        "meta_element_set_no": 999,
        "meta_rev_at_epoch": 75885,
        "meta_bstar": 0.00016405672,
        "meta_mean_motion_dot": 3.15e-06,
        "meta_mean_motion_ddot": 0,
        "tle_line1": "1 37387U 11015A   25340.87347349  .00000315  00000+0  16406-3 0  9993",
        "tle_line2": "2 37387  98.7884  44.4515 0006672  57.7670 302.4153 14.21593716758850"
      },
      "geometry": {
        "type": "Point",
        "coordinates": [
          -132.1247312022684,
          16.885403307353243
        ]
      }
    }
  ]
}